NORAD_CAT_ID,OBJECT_NAME,OBJECT_TYPE,EPOCH,MEAN_MOTION,ECCENTRICITY,INCLINATION,RA_OF_ASC_NODE,ARG_OF_PERICENTER,MEAN_ANOMALY,BSTAR,MEAN_MOTION_DOT,MEAN_MOTION_DDOT,TLE_LINE0,TLE_LINE1,TLE_LINE2,SEMIMAJOR_AXIS,PERIOD,APOGEE,PERIGEE,DECAYED
51786.0,STARLINK-3638,PAYLOAD,2023-07-17 17:51:21,15.08850169,0.0001111,53.2179,5.4219,90.5404,269.5716,0.0003438,5.189e-05,0.0,0 STARLINK-3638,1 51786U 22017U   23198.74399972  .00005189  00000-0  34380-3 0  9996,2 51786  53.2179   5.4219 0001111  90.5404 269.5716 15.08850169 78142,6917.849,95.437,540.483,538.946,0.0
51786.0,STARLINK-3638,PAYLOAD,2023-07-18 11:20:36,15.08844603,0.0001244,53.2178,2.1513,82.8506,277.2628,0.00016081,2.273e-05,0.0,0 STARLINK-3638,1 51786U 22017U   23199.47264124  .00002273  00000-0  16081-3 0  9996,2 51786  53.2178   2.1513 0001244  82.8506 277.2628 15.08844603 78252,6917.866,95.437,540.592,538.871,0.0
51786.0,STARLINK-3638,PAYLOAD,2023-07-19 11:11:23,15.08829674,0.0001198,53.2184,357.6902,101.4277,258.685,-6.4126e-05,-1.308e-05,0.0,0 STARLINK-3638,1 51786U 22017U   23200.46624540 -.00001308  00000-0 -64126-4 0  9994,2 51786  53.2184 357.6902 0001198 101.4277 258.6850 15.08829674 78408,6917.912,95.438,540.606,538.948,0.0
51786.0,STARLINK-3638,PAYLOAD,2023-07-20 20:34:29,15.08857093,0.0001132,53.2188,351.4455,94.8827,265.2295,0.00083481,0.00013029,0.0,0 STARLINK-3638,1 51786U 22017U   23201.85728634  .00013029  00000-0  83481-3 0  9992,2 51786  53.2188 351.4455 0001132  94.8827 265.2295 15.08857093 78617,6917.828,95.436,540.476,538.91,0.0
51786.0,STARLINK-3638,PAYLOAD,2023-07-24 08:49:56,15.08840503,0.000184,53.2165,335.6928,40.6061,319.5068,0.00024836,3.667e-05,0.0,0 STARLINK-3638,1 51786U 22017U   23205.36801165  .00003667  00000-0  24836-3 0  9999,2 51786  53.2165 335.6928 0001840  40.6061 319.5068 15.08840503 77456,6917.879,95.438,541.017,538.471,0.0
51786.0,STARLINK-3638,PAYLOAD,2023-07-25 11:51:29,15.08844117,0.0001627,53.215,330.6294,72.6287,287.4883,-7.9198e-05,-1.548e-05,0.0,0 STARLINK-3638,1 51786U 22017U   23206.49409071 -.00001548  00000-0 -79198-4 0  9994,2 51786  53.2150 330.6294 0001627  72.6287 287.4883 15.08844117 77621,6917.868,95.437,540.858,538.607,0.0
51786.0,STARLINK-3638,PAYLOAD,2023-07-26 08:31:30,15.08839037,0.0001133,53.215,326.7652,77.9065,282.2054,8.7192e-05,1.1e-05,0.0,0 STARLINK-3638,1 51786U 22017U   23207.35521235  .00001100  00000-0  87192-4 0  9992,2 51786  53.2150 326.7652 0001133  77.9065 282.2054 15.08839037 77751,6917.883,95.438,540.532,538.965,0.0
51786.0,STARLINK-3638,PAYLOAD,2023-07-27 00:25:21,15.08850248,0.000114,53.2179,323.793,95.0677,265.0445,0.00031106,4.667e-05,0.0,0 STARLINK-3638,1 51786U 22017U   23208.01760528  .00004667  00000-0  31106-3 0  9990,2 51786  53.2179 323.7930 0001140  95.0677 265.0445 15.08850248 79545,6917.849,95.437,540.503,538.925,0.0
51786.0,STARLINK-3638,PAYLOAD,2023-07-27 06:46:54,15.0883854,0.0001714,53.2176,322.6022,87.6541,272.4647,5.9151e-05,6.53e-06,0.0,0 STARLINK-3638,1 51786U 22017U   23208.28257151  .00000653  00000-0  59151-4 0  9994,2 51786  53.2176 322.6022 0001714  87.6541 272.4647 15.08838540 79587,6917.885,95.438,540.936,538.564,0.0
51786.0,STARLINK-3638,PAYLOAD,2023-07-27 17:54:36,15.08833326,0.0001408,53.2183,320.5241,96.7698,263.3455,-6.0644e-05,-1.253e-05,0.0,0 STARLINK-3638,1 51786U 22017U   23208.74625336 -.00001253  00000-0 -60644-4 0  9997,2 51786  53.2183 320.5241 0001408  96.7698 263.3455 15.08833326 77962,6917.901,95.438,540.74,538.792,0.0
51786.0,STARLINK-3638,PAYLOAD,2023-07-28 08:13:05,15.0882681,0.000146,53.2198,317.8493,104.1119,256.0035,9.2553e-05,1.185e-05,0.0,0 STARLINK-3638,1 51786U 22017U   23209.34241948  .00001185  00000-0  92553-4 0  9993,2 51786  53.2198 317.8493 0001460 104.1119 256.0035 15.08826810 79747,6917.921,95.438,540.796,538.776,0.0
51786.0,STARLINK-3638,PAYLOAD,2023-07-29 00:06:56,15.08840111,0.000133,53.2181,314.8681,77.2736,282.8405,4.5996e-05,4.44e-06,0.0,0 STARLINK-3638,1 51786U 22017U   23210.00481629  .00000444  00000-0  45996-4 0  9996,2 51786  53.2181 314.8681 0001330  77.2736 282.8405 15.08840111 79845,6917.88,95.438,540.665,538.825,0.0
51786.0,STARLINK-3638,PAYLOAD,2023-07-29 19:11:33,15.0884899,0.00016,53.2187,311.2984,81.8898,278.2276,0.00033177,4.997e-05,0.0,0 STARLINK-3638,1 51786U 22017U   23210.79969289  .00004997  00000-0  33177-3 0  9999,2 51786  53.2187 311.2984 0001600  81.8898 278.2276 15.08848990 79969,6917.853,95.437,540.825,538.611,0.0
51786.0,STARLINK-3638,PAYLOAD,2023-07-30 11:05:25,15.08838112,0.0001484,53.2142,308.3276,91.9833,268.1329,-1.5087e-06,-3.12e-06,0.0,0 STARLINK-3638,1 51786U 22017U   23211.46209895 -.00000312  00000-0 -15087-5 0  9995,2 51786  53.2142 308.3276 0001484  91.9833 268.1329 15.08838112 80067,6917.886,95.438,540.778,538.725,0.0
51786.0,STARLINK-3638,PAYLOAD,2023-07-30 15:51:34,15.08847066,0.0001215,53.2165,307.4363,87.6841,272.429,0.00013721,1.897e-05,0.0,0 STARLINK-3638,1 51786U 22017U   23211.66081480  .00001897  00000-0  13721-3 0  9993,2 51786  53.2165 307.4363 0001215  87.6841 272.4290 15.08847066 80098,6917.859,95.437,540.564,538.883,0.0
51786.0,STARLINK-3638,PAYLOAD,2023-08-01 18:43:54,15.08851965,0.0001093,53.2159,297.9213,90.1598,269.9519,0.00037033,5.613e-05,0.0,0 STARLINK-3638,1 51786U 22017U   23213.78049400  .00005613  00000-0  37033-3 0  9996,2 51786  53.2159 297.9213 0001093  90.1598 269.9519 15.08851965 80414,6917.844,95.437,540.465,538.953,0.0
51786.0,STARLINK-3638,PAYLOAD,2023-08-02 09:02:23,15.08835806,0.0001305,53.2176,295.2509,61.0429,299.0694,7.3616e-05,8.84e-06,0.0,0 STARLINK-3638,1 51786U 22017U   23214.37665833  .00000884  00000-0  73616-4 0  9999,2 51786  53.2176 295.2509 0001305  61.0429 299.0694 15.08835806 80502,6917.893,95.438,540.661,538.855,0.0
51786.0,STARLINK-3638,PAYLOAD,2023-08-02 16:59:18,15.08851502,0.0001148,53.2161,293.7579,79.9652,280.147,0.00075156,0.00011697,0.0,0 STARLINK-3638,1 51786U 22017U   23214.70785627  .00011697  00000-0  75156-3 0  9994,2 51786  53.2161 293.7579 0001148  79.9652 280.1470 15.08851502 80556,6917.845,95.437,540.504,538.916,0.0
51786.0,STARLINK-3638,PAYLOAD,2023-08-03 10:28:33,15.08852315,0.0001208,53.2161,290.4881,75.42,284.6926,0.00073634,0.00011454,0.0,0 STARLINK-3638,1 51786U 22017U   23215.43649617  .00011454  00000-0  73634-3 0  9993,2 51786  53.2161 290.4881 0001208  75.4200 284.6926 15.08852315 80663,6917.843,95.437,540.543,538.872,0.0
51786.0,STARLINK-3638,PAYLOAD,2023-08-04 10:19:20,15.08832175,0.0001315,53.2168,286.0268,108.7942,251.3193,-9.7008e-05,-1.831e-05,0.0,0 STARLINK-3638,1 51786U 22017U   23216.43010048 -.00001831  00000-0 -97008-4 0  9996,2 51786  53.2168 286.0268 0001315 108.7942 251.3193 15.08832175 80818,6917.904,95.438,540.679,538.86,0.0
51786.0,STARLINK-3638,PAYLOAD,2023-08-05 10:10:07,15.08851771,0.0001105,53.2151,281.5651,96.2496,263.8622,0.00063935,9.905e-05,0.0,0 STARLINK-3638,1 51786U 22017U   23217.42370035  .00009905  00000-0  63935-3 0  9990,2 51786  53.2151 281.5651 0001105  96.2496 263.8622 15.08851771 80962,6917.844,95.437,540.474,538.945,0.0
51786.0,STARLINK-3638,PAYLOAD,2023-08-06 05:14:45,15.08841825,0.0001515,53.2158,277.9948,102.8179,257.2982,9.2756e-05,1.189e-05,0.0,0 STARLINK-3638,1 51786U 22017U   23218.21858093  .00001189  00000-0  92756-4 0  9993,2 51786  53.2158 277.9948 0001515 102.8179 257.2982 15.08841825 81083,6917.875,95.437,540.788,538.692,0.0
51786.0,STARLINK-3638,PAYLOAD,2023-08-07 03:30:09,15.08830915,0.0001118,53.2155,273.8332,91.1682,268.9438,-6.9227e-05,-1.389e-05,0.0,0 STARLINK-3638,1 51786U 22017U   23219.14594860 -.00001389  00000-0 -69227-4 0  9996,2 51786  53.2155 273.8332 0001118  91.1682 268.9438 15.08830915 81229,6917.908,95.438,540.547,539.0,0.0
51786.0,STARLINK-3638,PAYLOAD,2023-08-07 20:59:23,15.08848258,0.0001106,53.2164,270.5624,116.959,243.1516,-3.3096e-05,-8.15e-06,0.0,0 STARLINK-3638,1 51786U 22017U   23219.87458240 -.00000815  00000-0 -33096-4 0  9995,2 51786  53.2164 270.5624 0001106 116.9590 243.1516 15.08848258 81331,6917.855,95.437,540.485,538.955,0.0
51786.0,STARLINK-3638,PAYLOAD,2023-08-09 03:11:43,15.08838104,0.0001095,53.2163,264.9152,88.3726,271.7391,0.00017074,2.43e-05,0.0,0 STARLINK-3638,1 51786U 22017U   23221.13314625  .00002430  00000-0  17074-3 0  9995,2 51786  53.2163 264.9152 0001095  88.3726 271.7391 15.08838104 81521,6917.886,95.438,540.509,538.994,0.0
51786.0,STARLINK-3638,PAYLOAD,2023-08-10 09:24:03,15.08841537,9.99e-05,53.2148,259.2632,90.9554,269.1553,1.8549e-05,7e-08,0.0,0 STARLINK-3638,1 51786U 22017U   23222.39170629  .00000007  00000-0  18549-4 0  9995,2 51786  53.2148 259.2632 0000999  90.9554 269.1553 15.08841537 81710,6917.876,95.437,540.432,539.05,0.0
51786.0,STARLINK-3638,PAYLOAD,2023-08-11 02:53:18,15.08835312,0.0001018,53.2147,255.9918,91.9344,268.1765,9.1231e-05,1.164e-05,0.0,0 STARLINK-3638,1 51786U 22017U   23223.12035034  .00001164  00000-0  91231-4 0  9991,2 51786  53.2147 255.9918 0001018  91.9344 268.1765 15.08835312 81820,6917.895,95.438,540.464,539.055,0.0
51786.0,STARLINK-3638,PAYLOAD,2023-08-12 07:30:14,15.08842825,0.0001051,53.2154,250.6399,91.668,268.4433,0.00011352,1.519e-05,0.0,0 STARLINK-3638,1 51786U 22017U   23224.31266746  .00001519  00000-0  11352-3 0  9998,2 51786  53.2154 250.6399 0001051  91.6680 268.4433 15.08842825 82003,6917.872,95.437,540.464,539.01,0.0
51786.0,STARLINK-3638,PAYLOAD,2023-08-13 02:34:52,15.08837092,0.0001077,53.2157,247.0712,89.896,270.2155,4.7887e-05,4.74e-06,0.0,0 STARLINK-3638,1 51786U 22017U   23225.10755025  .00000474  00000-0  47887-4 0  9991,2 51786  53.2157 247.0712 0001077  89.8960 270.2155 15.08837092 82128,6917.889,95.438,540.499,539.009,0.0
51786.0,STARLINK-3638,PAYLOAD,2023-08-14 08:47:12,15.0883988,0.0001148,53.2163,241.4204,83.4552,276.6571,2.6693e-05,1.37e-06,0.0,0 STARLINK-3638,1 51786U 22017U   23226.36611431  .00000137  00000-0  26693-4 0  9990,2 51786  53.2163 241.4204 0001148  83.4552 276.6571 15.08839880 82315,6917.881,95.438,540.54,538.952,0.0
